[{"OBJECT_NAME":"STARLINK-30125","OBJECT_ID":"2023-067P","EPOCH":"2026-03-09T21:51:10.089216","MEAN_MOTION":15.2757641,"ECCENTRICITY":9.573e-5,"INCLINATION":42.9986,"RA_OF_ASC_NODE":269.8264,"ARG_OF_PERICENTER":273.72,"MEAN_ANOMALY":86.3542,"EPHEMERIS_TYPE":0,"CLASSIFICATION_TYPE":"U","NORAD_CAT_ID":56701,"ELEMENT_SET_NO":999,"REV_AT_EPOCH":15573,"BSTAR":6.9363402e-5,"MEAN_MOTION_DOT":1.647e-5,"MEAN_MOTION_DDOT":0},{"OBJECT_NAME":"TRANSPORTER-12 OBJECT BA","OBJECT_ID":"2025-009BA","EPOCH":"2026-03-09T16:49:42.568896","MEAN_MOTION":15.27214003,"ECCENTRICITY":4.03e-5,"INCLINATION":97.3985,"RA_OF_ASC_NODE":151.139,"ARG_OF_PERICENTER":234.6623,"MEAN_ANOMALY":125.4579,"EPHEMERIS_TYPE":0,"CLASSIFICATION_TYPE":"U","NORAD_CAT_ID":62657,"ELEMENT_SET_NO":999,"REV_AT_EPOCH":6373,"BSTAR":0.00042732654,"MEAN_MOTION_DOT":0.0001133,"MEAN_MOTION_DDOT":0}]
